line1,line2,validFromUtcTime
1 00000U 00000E   26001.00000000  .00000000  00000-0  27772-4 0    01,2 00000  88.9641  15.3307 0010035 269.8786  52.7625 13.55310579    08,2026-01-01T00:00:00Z
1 00000U 00000E   26002.00000000  .00000000  00000-0  27772-4 0    02,2 00000  88.9641  15.2253 0010035 266.9678 251.8790 13.55310617    03,2026-01-02T00:00:00Z
